state,county,primary_city,dropbox,address,city,zip,phone,description
WA,Adams,NA,Adams County Public Services Building Drop Box,425 E Main St,Othello,99344,NA,24-hour convenient safe secure ballot drop box located just outside the front door.
WA,Adams,NA,Ritzville City Hall,216 E. Main Ave,Ritzville,99169,NA,NA
WA,Adams,NA,Town of Lind - Town Clerk,116 1/2 W. 2nd St.,Lind,99341,NA,NA
WA,Adams,NA,Town of Washtucna City Hall,165 S Main St,Washtucna,99371,NA,NA
WA,Asotin,NA,Asotin County Auditor's Office Drop Box,135 Second St.,Asotin,99402,NA,NA
WA,Asotin,NA,Clarkston City Hall,829 5th Street,Clarkston,99403,NA,located in the alley behind Clarkston City Hall
WA,Asotin,NA,Lincoln Middle School,1945 4th Ave,Clarkston,99403,NA,located behind Lincoln Middle School
WA,Benton,NA,Belmont (West Richland),3100 Belmont Blvd,West Richland,99353,NA,NA
WA,Benton,NA,Benton City City Hall,1009 Dale Ave,Benton City,99320,NA,NA
WA,Benton,NA,Jefferson Park,Symons St,Richland,99352,NA,Jefferson Park Drive Thru Drop Box
WA,Benton,NA,Kennewick Auditor's Annex - Drop Box,5600 W Canal Dr,Kennewick,99336,NA,NA
WA,Benton,NA,Kennewick City Hall,210 W 6th Ave,Kennewick,99336,NA,NA
WA,Benton,NA,Prosser Auditor's Office - Drop Box,620 Market St,Prosser,99350,NA,NA
WA,Benton,NA,Richland Auditor's Annex - Drop Box,101 Wellsian Way,Richland,99352,NA,Just outside the Fred Meyer shopping center
WA,Benton,NA,West Richland City Hall,3801 West Van Giesen Street,West Richland,99353,NA,West Richland City Hall Drop Box
WA,Benton,NA,WSU Tri-Cities,2710 Crimson Way,Richland,99354,NA,Near the student parking lot.
WA,Chelan,NA,Cashmere City Hall,101 Woodring St,Cashmere,98815,NA,Drop box behind City Hall
WA,Chelan,NA,Chelan City Hall,135 East Johnson Ave,Chelan,98816,NA,Drop box behing building
WA,Chelan,NA,Chelan County Auditor - Elections - Drop Box,350 Orondo Ave Level 3,Wenatchee,98801,NA,Located in Auditor's Office Level 3
WA,Chelan,NA,Chelan County Auditor - Licensing and Recording Dept,350 Orondo Ave Level 2,Wenatchee,98801,NA,NA
WA,Chelan,NA,Entiat City Hall,14070 Kinzel St,Entiat,98822,NA,Drop box in parking lot
WA,Chelan,NA,Leavenworth City Hall,700 Hwy 2,Leavenworth,98826,NA,Drop box in parking lot
WA,Chelan,NA,Wenatchee Public Library,310 Douglas St,Wenatchee,98801,NA,Drop Box located by library book drop
WA,Clallam,NA,Carlsborg Ballot Drop Box,261461 US-101,Carlsborg,98382,NA,Drop box is next to Sunny Farms in the far east parking lot behind Flippers.
WA,Clallam,NA,Clallam Bay Drop Box,16990 Hwy 112,Clallam Bay,98326,NA,Located in front of the Clallam Bay Branch Library
WA,Clallam,NA,Forks Drop Box,500 E Division St,Forks,98331,NA,Drop box is located outside Forks City Hall under the overhang against the building by the lobby doors.
WA,Clallam,NA,Neah Bay Drop Box,1450 Bayview Ave,Neah Bay,98357,NA,Located in front of Washburn's General Store by the left Totem Pole.
WA,Clallam,NA,Port Angeles - Drive-Thru Drop Box,223 E 4th St,Port Angeles,98362,NA,Located in the Courthouse circular drive off 4th Street
WA,Clallam,NA,Port Angeles - inside the Courthouse,223 E 4th St,Port Angeles,98362,NA,Located in the Clallam County Auditor's Office lobby.
WA,Clallam,NA,Port Angeles - Walk-up Drop Box,223 E 4th St,Port Angeles,98362,NA,Located on the Courthouse sidewalk across from the disabled parking.
WA,Clallam,NA,Sekiu Ballot Drop Box,15 Sekiu Airport Road,Sekiu,98381,NA,Drop box is located in the drive-through for the PUD.
WA,Clallam,NA,Sequim Drop Box,651 W Washington St,Sequim,98382,NA,Location is in the parking lot in front of JC Penney.
WA,Clark,NA,14th & Esther Permanent Ballot Drop Box,W 14th & Esther Streets,Vancouver,98660,NA,24 Hour Ballot Drop Box Open 18 days prior to each election
WA,Clark,NA,99th Street C-Tran Transit Center Permanent Ballot Drop Box,9700 NE 7th Avenue,Vancouver,98665,NA,24 Hour Ballot Drop Box Open 18 days prior to each election
WA,Clark,NA,Amboy Middle School,22115 NE Chelatchie Road,Amboy,98601,NA,ELECTION DAY ONLY 7 am to 8 pm
WA,Clark,NA,Battle Ground City Hall Permanent Ballot Drop Box,109 SW 1st Street,Battle Ground,98604,NA,24 Hour Ballot Drop Box Open 18 days prior to each election
WA,Clark,NA,Burton Elementary School,14015 NE 28th Street,Vancouver,98682,NA,ELECTION DAY ONLY 7 am to 8 pm
WA,Clark,NA,Camas USPS Permanent Ballot Drop Box,440 NE 5th Avenue,Camas,98607,NA,24 Hour Ballot Drop Box Open 18 days prior to each election
WA,Clark,NA,Chinook Elementary School,1900 NW Bliss Road,Vancouver,98685,NA,ELECTION DAY ONLY 7 am to 8 pm
WA,Clark,NA,Clark County Elections - Drop Box,1408 Franklin Street,Vancouver,98660,NA,ELECTION DAY ONLY 7 am to 8 pm
WA,Clark,NA,Clark County Fire District No 3,17718 NE 159th St,Brush Prairie,98606,NA,ELECTION DAY ONLY 7 am to 8 pm
WA,Clark,NA,Dorothy Fox Elementary School,2623 NW Sierra Street,Camas,98607,NA,ELECTION DAY ONLY 7 am to 8 pm
WA,Clark,NA,Ellsworth Elementary School,512 SE Ellsworth Road,Vancouver,98664,NA,ELECTION DAY ONLY 7 am to 8 pm
WA,Clark,NA,Felida Elementary School,2700 NW 119th Street,Vancouver,98685,NA,ELECTION DAY ONLY 7 am to 8 pm
WA,Clark,NA,Fisher's Landing Permanent Ballot Drop Box,3510 SE 164th Avenue,Vancouver,98683,NA,24 Hour Ballot Drop Box Open 18 days prior to each election
WA,Clark,NA,Glenwood Heights Primary School,9716 NE 134th Street,Vancouver,98662,NA,ELECTION DAY ONLY 7 am to 8 pm
WA,Clark,NA,Grace Foursquare Gospel Church,717 SE Everett Road,Camas,98607,NA,ELECTION DAY ONLY 7 am to 8 pm
WA,Clark,NA,Hazel Dell Elementary School,511 NE Anderson Road,Vancouver,98665,NA,ELECTION DAY ONLY 7 am to 8 pm
WA,Clark,NA,Image Elementary School,4400 NE 122nd Avenue,Vancouver,98682,NA,ELECTION DAY ONLY 7 am to 8 pm
WA,Clark,NA,La Center Community Center,1000 E. 4th Street,La Center,98629,NA,ELECTION DAY ONLY 7 am to 8 pm
WA,Clark,NA,Mill Plain Elementary School,400 SE 164th Avenue,Vancouver,98684,NA,ELECTION DAY ONLY 7 am to 8 pm
WA,Clark,NA,Minnehaha Elementary School,2800 NE 54th Street,Vancouver,98663,NA,ELECTION DAY ONLY 7 am to 8 pm
WA,Clark,NA,Pleasant Valley Middle School,14320 NE 50th Avenue,Vancouver,98686,NA,ELECTION DAY ONLY 7 am to 8 pm
WA,Clark,NA,Ridgefield Permanent Ballot Drop Box,End of North First Circle,Ridgefield,98642,NA,24 Hour Ballot Drop Box Open 18 days prior to each election
WA,Clark,NA,Salmon Creek Elementary School,1601 NE 129th Street,Vancouver,98685,NA,ELECTION DAY ONLY 7 am to 8 pm
WA,Clark,NA,Sarah J Anderson Elementary School,2215 NE 104th Street,Vancouver,98686,NA,ELECTION DAY ONLY 7 am to 8 pm
WA,Clark,NA,Sifton Elementary School,7301 NE 137th Avenue,Vancouver,98682,NA,ELECTION DAY ONLY 7 am to 8 pm
WA,Clark,NA,Vancouver Mall Permanent Ballot Drop Box,8700 NE Vancouver Mall Dr,Vancouver,98662,NA,24 Hour Ballot Drop Box Open 18 days prior to each election
WA,Clark,NA,Walnut Grove Elementary School,6103 NE 72nd Avenue,Vancouver,98661,NA,ELECTION DAY ONLY 7 am to 8 pm
WA,Clark,NA,Washougal Community Center,1681 C Street,Washougal,98671,NA,ELECTION DAY ONLY 7 am to 8 pm
WA,Clark,NA,Yacolt Primary School,406 W. Yacolt Road,Yacolt,98675,NA,ELECTION DAY ONLY 7 am to 8 pm
WA,Columbia,NA,Courthouse Alley,341 E. Main St.,Dayton,99328,NA,NA
WA,Columbia,NA,Starbuck City Hall,200 Main St.,Starbuck,99359,NA,NA
WA,Cowlitz,NA,Broadway Street (Ballot Drop Box),1525 Broadway Street,Longview,98632,NA,East of the Longview Post Office boxes
WA,Cowlitz,NA,Castle Rock (Ballot Drop Box),137 Cowlitz St West,Castle Rock,98611,NA,In front of the Castle Rock Library
WA,Cowlitz,NA,Kalama (Ballot Drop Box),454 N 1st Street,Kalama,98625,NA,Near the Kalama Post Office boxes
WA,Cowlitz,NA,Kelso (Ballot Drop Box),Bridge Market Lane,Kelso,98626,NA,On Bridge Market Lane between LJ's Furness Drug Co and the Allen St bridge.
WA,Cowlitz,NA,Longview Civic Center Circle (Ballot Drop Box),1525 Broadway Street,Longview,98632,NA,Across from Broadway St near the Longview Post Office boxes
WA,Cowlitz,NA,Ryderwood (Ballot Drop Box),208 Morse St,Ryderwood,98581,NA,Next to the Ryderwood Library
WA,Cowlitz,NA,Woodland City Parking Lot (Ballot Drop Box),230 Davidson Avenue,Woodland,98674,NA,Near the City's utility payment drop box
WA,Douglas,NA,Bridgeport City Hall Drop Box,1206 Columbia Ave,Bridgeport,98813,NA,NA
WA,Douglas,NA,Coulee Dam Town Hall,300 Lincoln Ave.,Coulee Dam,98116,NA,NA
WA,Douglas,NA,Douglas County Courthouse Drop Box,213 S Rainier St,Waterville,98858,NA,NA
WA,Douglas,NA,Douglas County Law & Justice Center Drop Box,110 2nd St NE,East Wenatchee,98802,NA,NA
WA,Douglas,NA,Douglas County Public Service Bldg Drop Box,140 19th Street NW,East Wenatchee,98802,NA,NA
WA,Douglas,NA,East Wenatchee City Hall,271 9th St. NE,East Wenatchee,98802,NA,NA
WA,Douglas,NA,Mansfield City Hall Drop Box,26 Main,Mansfield,98830,NA,NA
WA,Douglas,NA,Rock Island City Hall Drop Box,5 N Garden,Rock Island,98850,NA,NA
WA,Ferry,NA,Curlew Drop Box - Curlew Fire Station,30 Customs Rd,Curlew,99118,NA,NA
WA,Ferry,NA,Danville Drop Box - Danville Outpost,19097 N HWY 21,Danville,99121,NA,NA
WA,Ferry,NA,Inchelium Drop Box,Lake Roosevelt Community Health Center,Inchelium,99138,NA,NA
WA,Ferry,NA,Keller Drop Box - Sanpoil Community Health,11665 S HWY 21,Keller,99140,NA,NA
WA,Ferry,NA,Republic City Hall,987 S. Clark Ave,Republic,99166,NA,Phone number is (509)775-3216. Box is available until 8 p.m. on Election Day.
WA,Franklin,NA,Connell PUD Shop,619 W Clark St.,Connell,99326,NA,NA
WA,Franklin,NA,Fire District No. 3,2108 Road 84,Pasco,99301,NA,NA
WA,Franklin,NA,Franklin County Annex - Elections Center,116 N 3rd Ave,Pasco,99301,NA,NA
WA,Franklin,NA,Franklin County Courthouse Drop Box,1016 N. 4th Avenue,Pasco,99301,NA,The box is located near the Octave Street entrance to the parking lot outside of the courthouse.
WA,Franklin,NA,The HAPO Center (TRAC),6600 Burden Blvd,Pasco,99301,NA,NA
WA,Garfield,NA,Garfield County Auditor's Office Drop Box,789 Main Street,Pomeroy,99347,NA,NA
WA,Grant,NA,Coulee City City Hall,501 W Main St,Coulee City,99115,NA,Across the street at the flag poles
WA,Grant,NA,Fire District #10 Fire Hall,588 Camelia St,Royal City,99357,NA,NA
WA,Grant,NA,George City Hall,102 Richmond Ave,George,98824,NA,NA
WA,Grant,NA,Grant County Courthouse,1st & C St NW,Ephrata,98823,NA,Grant County Courthouse Public Parking Lot #A
WA,Grant,NA,Grant County PUD,555 Grand Coulee Ave,Grand Coulee,99133,NA,NA
WA,Grant,NA,Mattawa Hospital,210 Government Rd,Mattawa,99349,NA,NA
WA,Grant,NA,Moses Lake City Hall,321 Balsam St,Moses Lake,98837,NA,Behind Moses Lake Civic Center Annex. Just before the city payment drop box.
WA,Grant,NA,Quincy Public Library,208 Central Ave S,Quincy,98848,NA,NA
WA,Grant,NA,Soap Lake City Hall,239 SE 2nd Ave,Soap Lake,98851,NA,NA
WA,Grant,NA,Warden Community Center,115 N Oak St,Warden,98857,NA,NA
WA,Grays Harbor,NA,Aberdeen Hoquiam Cosmopolis Area,YMCA,Hoquiam,98550,NA,NA
WA,Grays Harbor,NA,Elma City Hall,202 W Main St,Elma,98541,NA,Alley between City Hall & Fire Station
WA,Grays Harbor,NA,Grays Harbor County Auditor's Office Drop Box,100 W Broadway,Montesano,98563,NA,At the corner of 1st St N and Broadway.
WA,Grays Harbor,NA,McCleary Area,VFW,McCleary,98557,NA,Open election day only
WA,Grays Harbor,NA,Oakville Area,Methodist Church,Oakville,98568,NA,Open election day only.
WA,Grays Harbor,NA,Oakville City Hall,204 E Main St,Oakville,98568,NA,NA
WA,Grays Harbor,NA,Ocean Shores Convention Center,120 W Chance a la Mer,Ocean Shores,98569,NA,In the parking lot of the Ocean Shores Convention Center
WA,Grays Harbor,NA,South Beach Area,Council Chambers,Westport,98595,NA,Open election day only
WA,Grays Harbor,NA,Westport City Administration,604 N Montesano St,Westport,98595,NA,NA
WA,Island,NA,Camano Island Annex,121 N. East Camano Drive,Camano Island,98282,NA,Drop box is open 24 hours a day starting 18 days before the election and will be closed promptly at 8 p.m. on election night.
WA,Island,NA,Island County Auditor's Office - Drop Box,400 North Main Street,Coupeville,98239,NA,Office is open Monday through Friday 8:00 a.m. to 4:30 p.m. On Election Day only the office is open 8:00 a.m to 8:00 p.m. Drop box is open 24 hours a day starting 18 days before the election and will be closed promptly at 8 p.m. on election night.
WA,Island,NA,Ken's Korner Red Apple Grocery,4141 SR 525,Clinton,98236,NA,Drop box is open 24 hours a day starting 18 days before the election and will be closed promptly at 8 p.m. on election night.
WA,Island,NA,Langley Post Office,112 5th Street,Langley,98260,NA,Drop box is open 24 hours a day starting 18 days before the election and will be closed promptly at 8 p.m. on election night.
WA,Island,NA,Oak Harbor City Hall,865 SE Barrington Dr.,Oak Harbor,98277,NA,Drop box is open 24 hours a day starting 18 days before the election and will be closed promptly at 8 p.m. on election night.
WA,Island,NA,Trinity Lutheran Church,State Hwy 525 & Woodard Rd.,Freeland,98249,NA,Drop box is open 24 hours a day starting 18 days before the election and will be closed promptly at 8 p.m. on election night.
WA,Jefferson,NA,Brinnon Community Center,306144 Hwy 101,Brinnon,98320,NA,The ballot drop box is located in the parking lot of the Brinnon Community Center.
WA,Jefferson,NA,Jefferson County Courthouse - Back Parking Lot,1820 Jefferson St,Port Townsend,98368,NA,This drop box is accessible by vehicle has 24 hour access. It is emptied every morning by two staff from the Auditor's Office. Ballot drop box is locked down at 8:00 p.m. election night and emptied at 8:00 a.m. the following day.
WA,Jefferson,NA,Jefferson County Library,620 Cedar Ave,Port Hadlock,98339,NA,Located in the parking lot of the Jefferson County Library. The ballot drop box is emptied by two staff members three times a week. On election day the drop box is locked down at 8:00 p.m. and emptied the following morning.
WA,Jefferson,NA,Nordland East Jefferson Fire & Rescue Station 12,6633 Flagler Rd,Nordland,98358,NA,The ballot drop box is located in the parking lot of the East Jefferson Fire & Rescue Station 12 in
WA,Jefferson,NA,Quilcene Community Center,294952 Hwy 101,Quilcene,98376,NA,The ballot drop box is located in the parking lot of the Quilcene Community Center.
WA,King,NA,Alaska Junction,Corner of SW Alaska St and 44th Ave SW,Seattle,98116,NA,Open 24 hours a day beginning October 17 and Closes on Election Day November 3 2020 at 8 p.m.
WA,King,NA,Algona-Pacific Library,255 Ellingson Rd,Pacific,98047,NA,Open 24 hours a day beginning October 17 and Closes on Election Day November 3 2020 at 8 p.m.
WA,King,NA,Angle Lake Transit Station,19955 28th Ave S,SeaTac,98188,NA,Open 24 hours a day beginning October 17; closes on Election Day November 3 2020 at 8 p.m.
WA,King,NA,Auburn Library,1102 Auburn Way S,Auburn,98002,NA,Open 24 hours a day beginning October 17 and Closes on Election Day November 3 2020 at 8 p.m.
WA,King,NA,Auburn Park & Ride,101 15th St NE,Auburn,98001,NA,Open 24 hours a day beginning October 17 and Closes on Election Day November 3 2020 at 8 p.m.
WA,King,NA,Ballard Branch Library,Corner of NW 57th St and 22nd Ave NW,Seattle,98107,NA,Open 24 hours a day beginning October 17 and Closes on Election Day November 3 2020 at 8 p.m.
WA,King,NA,Beacon Hill Library,2821 Beacon Ave S,Seattle,98144,NA,Open 24 hours a day beginning October 17 and Closes on Election Day November 3 2020 at 8 p.m.
WA,King,NA,Bellevue Regional Library,1111 110th Ave NE,Bellevue,98004,NA,Open 24 hours a day beginning October 17 and Closes on Election Day November 3 2020 at 8 p.m.
WA,King,NA,Bothell City Hall,18415 101st Ave NE,Bothell,98011,NA,Open 24 hours a day beginning October 17 and Closes on Election Day November 3 2020 at 8 p.m.
WA,King,NA,Boulevard Park Library,12015 Roseberg Ave S,Seattle,98168,NA,Open 24 hours a day beginning October 17 and Closes on Election Day November 3 2020 at 8 p.m.
WA,King,NA,Broadview Library,12755 Greenwood Ave N,Seattle,98133,NA,Open 24 hours a day beginning October 17 and Closes on Election Day November 3 2020 at 8 p.m.
WA,King,NA,Burien Town Square Park (corner of 5th Ave SW and SW 152nd St),480 SW 152nd St,Burien,98166,NA,Open 24 hours a day beginning October 17 and Closes on Election Day November 3 2020 at 8 p.m.
WA,King,NA,Covington Library,27100 164th Ave SE,Covington,98042,NA,Open 24 hours a day beginning October 17 and Closes on Election Day November 3 2020 at 8 p.m.
WA,King,NA,Crossroads Shopping Center (south entrance),15600 NE 8th St,Bellevue,98008,NA,Open 24 hours a day beginning October 17 and Closes on Election Day November 3 2020 at 8 p.m.
WA,King,NA,Duvall Police Department-Depot Park,26225 NE Burhen Way,Duvall,98019,NA,Open 24 hours a day beginning October 17 and Closes on Election Day November 3 2020 at 8 p.m.
WA,King,NA,Enumclaw Library,1700 1st St,Enumclaw,98022,NA,Open 24 hours a day beginning October 17 and Closes on Election Day November 3 2020 at 8 p.m.
WA,King,NA,Fairwood Library,17009 140th Ave SE,Renton,98058,NA,Open 24 hours a day beginning October 17 and Closes on Election Day November 3 2020 at 8 p.m.
WA,King,NA,Fall City Library,33415 SE 42nd Pl,Fall City,98024,NA,Open 24 hours a day beginning October 17 and Closes on Election Day November 3 2020 at 8 p.m.
WA,King,NA,Federal Way 320th Library,848 S 320th St,Federal Way,98003,NA,Open 24 hours a day beginning October 17 and Closes on Election Day November 3 2020 at 8 p.m.
WA,King,NA,Federal Way City Hall,33325 8th Ave S,Federal Way,98003,NA,Open 24 hours a day beginning October 17 and Closes on Election Day November 3 2020 at 8 p.m.
WA,King,NA,Garfield Community Center,2323 E Cherry St,Seattle,98122,NA,Open 24 hours a day beginning October 17 and Closes on Election Day November 3 2020 at 8 p.m.
WA,King,NA,Green Lake Community Center,7201 E Green Lake Dr N,Seattle,98115,NA,Open 24 hours a day beginning October 17 and Closes on Election Day November 3 2020 at 8 p.m.
WA,King,NA,High Point Library,3411 SW Raymond St,Seattle,98126,NA,Open 24 hours a day beginning October 17 and Closes on Election Day November 3 2020 at 8 p.m.
WA,King,NA,Highline College (entrance across from 27th Ave S),2400 S 240th St,Des Moines,98198,NA,Open 24 hours a day beginning October 17 and Closes on Election Day November 3 2020 at 8 p.m.
WA,King,NA,Hobart Food Market,20250 276th Ave SE,Maple Valley,98038,NA,Open 24 hours a day beginning October 17 and Closes on Election Day November 3 2020 at 8 p.m.
WA,King,NA,Issaquah City Hall,130 E Sunset Way,Issaquah,98027,NA,Open 24 hours a day beginning October 17 and Closes on Election Day November 3 2020 at 8 p.m.
WA,King,NA,Kenmore City Hall,18120 68th Ave NE,Kenmore,98028,NA,Open 24 hours a day beginning October 17 and Closes on Election Day November 3 2020 at 8 p.m.
WA,King,NA,Kentridge High School,12430 SE 208th St,Kent,98031,NA,Open 24 hours a day beginning October 17 and Closes on Election Day November 3 2020 at 8 p.m.
WA,King,NA,King County Administration Building,500 4th Ave,Seattle,98104,NA,Open 24 hours a day beginning October 17 and Closes on Election Day November 3 2020 at 8 p.m.
WA,King,NA,King County Elections,919 SW Grady Way,Renton,98057,NA,Open 24 hours a day beginning October 17 and Closes on Election Day November 3 2020 at 8 p.m.
WA,King,NA,Kingsgate Library,12315 NE 143rd St,Kirkland,98034,NA,Open 24 hours a day beginning October 17 and Closes on Election Day November 3 2020 at 8 p.m.
WA,King,NA,Kirkland City Hall,123 5th Ave,Kirkland,98033,NA,Open 24 hours a day beginning October 17 and Closes on Election Day November 3 2020 at 8 p.m.
WA,King,NA,Lake City Library,12501 28th Ave NE,Seattle,98125,NA,Open 24 hours a day beginning October 17 and Closes on Election Day November 3 2020 at 8 p.m.
WA,King,NA,Lake Forest Park City Hall,17425 Ballinger Way NE,Lake Forest Park,98155,NA,Open 24 hours a day beginning October 17 and Closes on Election Day November 3 2020 at 8 p.m.
WA,King,NA,Magnolia Park,1461 Magnolia Blvd W,Seattle,98199,NA,Open 24 hours a day beginning October 17 and Closes on Election Day November 3 2020 at 8 p.m.
WA,King,NA,Magnuson Park-The Brig,6344 NE 74th St,Seattle,98115,NA,Open 24 hours a day beginning October 17 and Closes on Election Day November 3 2020 at 8 p.m.
WA,King,NA,Mercer Island Community & Event Center,8236 SE 24th St,Mercer Island,98040,NA,Open 24 hours a day beginning October 17 and Closes on Election Day November 3 2020 at 8 p.m.
WA,King,NA,Muckleshoot Tribe - Philip Starr Building,39015 172nd Ave SE,Auburn,98092,NA,Open 24 hours a day beginning October 17 and Closes on Election Day November 3 2020 at 8 p.m.
WA,King,NA,Newcastle City Hall,12835 Newcastle Way,Newcastle,98056,NA,Open 24 hours a day beginning October 17 and Closes on Election Day November 3 2020 at 8 p.m.
WA,King,NA,NewHolly Neighborhood Campus,7054 32nd Ave S,Seattle,98118,NA,Open 24 hours a day beginning October 17 and Closes on Election Day November 3 2020 at 8 p.m.
WA,King,NA,Newport Way Library,14250 SE Newport Way,Bellevue,98006,NA,Open 24 hours a day beginning October 17 and Closes on Election Day November 3 2020 at 8 p.m.
WA,King,NA,Normandy Park Towne Center,19901 1st Ave S,Normandy Park,98148,NA,Open 24 hours a day beginning October 17 and Closes on Election Day November 3 2020 at 8 p.m.
WA,King,NA,North Bend Library,115 E 4th St,North Bend,98045,NA,Open 24 hours a day beginning October 17 and Closes on Election Day November 3 2020 at 8 p.m.
WA,King,NA,North Seattle College (south visitor lot access from N 95th St),9600 College Way N,Seattle,98103,NA,Open 24 hours a day beginning October 17 and Closes on Election Day November 3 2020 at 8 p.m.
WA,King,NA,Rainier Beach Community Center,8825 Rainier Ave S,Seattle,98118,NA,Open 24 hours a day beginning October 17 and Closes on Election Day November 3 2020 at 8 p.m.
WA,King,NA,Rainier Community Center,4600 38th Ave S,Seattle,98118,NA,Open 24 hours a day beginning October 17 and Closes on Election Day November 3 2020 at 8 p.m.
WA,King,NA,Redmond City Hall,15670 NE 85th St,Redmond,98052,NA,Open 24 hours a day beginning October 17 and Closes on Election Day November 3 2020 at 8 p.m.
WA,King,NA,Redmond Community Center at Marymoor Village,6505 176th Ave NE,Redmond,98052,NA,Open 24 hours a day beginning October 17 and Closes on Election Day November 3 2020 at 8 p.m.
WA,King,NA,Regional Justice Center (near parking garage entrance),401 4th Ave N,Kent,98032,NA,Open 24 hours a day beginning October 17 and Closes on Election Day November 3 2020 at 8 p.m.
WA,King,NA,Renton Public Health Center,3201 NE 7th St,Renton,98056,NA,Open 24 hours a day beginning October 17 and Closes on Election Day November 3 2020 at 8 p.m.
WA,King,NA,Sammamish City Hall,801 228th Ave SE,Sammamish,98075,NA,Open 24 hours a day beginning October 17 and Closes on Election Day November 3 2020 at 8 p.m.
WA,King,NA,Seattle Central College Broadway-Edison Building (northeast corner),1701 Broadway,Seattle,98122,NA,Open 24 hours a day beginning October 17 and Closes on Election Day November 3 2020 at 8 p.m.
WA,King,NA,Seattle Pacific University Bookstore,310 W Bertona St,Seattle,98119,NA,Open 24 hours a day beginning October 17 and Closes on Election Day November 3 2020 at 8 p.m.
WA,King,NA,Shoreline Library,345 NE 175th St,Shoreline,98155,NA,Open 24 hours a day beginning October 17 and Closes on Election Day November 3 2020 at 8 p.m.
WA,King,NA,Shoreline Park & Ride,18821 Aurora Ave N,Shoreline,98133,NA,Open 24 hours a day beginning October 17 and Closes on Election Day November 3 2020 at 8 p.m.
WA,King,NA,Skyway Library,12601 76th Ave S,Seattle,98178,NA,Open 24 hours a day beginning October 17 and Closes on Election Day November 3 2020 at 8 p.m.
WA,King,NA,Snoqualmie Library,7824 Center Boulevard SE,Snoqualmie,98065,NA,Open 24 hours a day beginning October 17 and Closes on Election Day November 3 2020 at 8 p.m.
WA,King,NA,South Lake Union,310 Terry Ave N,Seattle,98109,NA,Open 24 hours a day beginning October 17 and Closes on Election Day November 3 2020 at 8 p.m.
WA,King,NA,South Park Library,8604 8th Ave S,Seattle,98108,NA,Open 24 hours a day beginning October 17 and Closes on Election Day November 3 2020 at 8 p.m.
WA,King,NA,Tahoma School District Building,25720 Maple Valley-Black Diamond Rd SE,Maple Valley,98038,NA,Open 24 hours a day beginning October 17 and Closes on Election Day November 3 2020 at 8 p.m.
WA,King,NA,Tukwila Community Center,12424 42nd Ave S,Tukwila,98168,NA,Open 24 hours a day beginning October 17 and Closes on Election Day November 3 2020 at 8 p.m.
WA,King,NA,University of Washington Campus Schmitz Hall (by north entrance on NE 41s AND??? 45st),NE Campus Parkway,Seattle,98195,NA,Open 24 hours a day beginning October 17 and Closes on Election Day November 3 2020 at 8 p.m.
WA,King,NA,Uwajimaya,619 6th Ave S,Seattle,98104,NA,Open 24 hours a day beginning October 17 and Closes on Election Day November 3 2020 at 8 p.m.
WA,King,NA,Valley View Library,17850 Military Rd S,SeaTac,98188,NA,Open 24 hours a day beginning October 17 and Closes on Election Day November 3 2020 at 8 p.m.
WA,King,NA,Vashon Library,17210 Vashon Highway SW,Vashon Island,98070,NA,Open 24 hours a day beginning October 17 and Closes on Election Day November 3 2020 at 8 p.m.
WA,King,NA,Waterway 19 Park (next to Gas Works Park),2119 N Northlake Way,Seattle,98103,NA,Open 24 hours a day beginning October 17 and Closes on Election Day November 3 2020 at 8 p.m.
WA,King,NA,White Center Library,1409 SW 107th St,Seattle,98146,NA,Open 24 hours a day beginning October 17 and Closes on Election Day November 3 2020 at 8 p.m.
WA,King,NA,Woodinville Library,17105 Avondale Rd NE,Woodinville,98072,NA,Open 24 hours a day beginning October 17 and Closes on Election Day November 3 2020 at 8 p.m.
WA,Kitsap,NA,Bainbridge Island School District,8489 Madison Ave NE,Bainbridge Island,98110,NA,NA
WA,Kitsap,NA,Bangor - Naval Base Kitsap,2500 Ohio St,NSB Silverdale,98315,NA,Located near the Kitsap Credit Union and NEX Package Store
WA,Kitsap,NA,Bremerton - KRL Sylvan Way Branch,1301 Sylvan Way,Bremerton,98310,NA,NA
WA,Kitsap,NA,Burley Store,14972 Bethel-Burley Rd SE,Burley,98367,NA,NA
WA,Kitsap,NA,Hansville - Norwegian Point Park,38950 Hansville Rd NE,Hansville,98340,NA,NA
WA,Kitsap,NA,Indianola Tennis Courts,20761 Greenwood St NE,Indianola,98342,NA,NA
WA,Kitsap,NA,Keyport - Central Park,15378 Washington Ave NE,Keyport,98345,NA,NA
WA,Kitsap,NA,Kingston - Village Green Park,10810 NE West Kingston Rd,Kingston,98346,NA,NA
WA,Kitsap,NA,Manchester - Stormwater Park,2399 Colchester Dr E,Manchester,98366,NA,NA
WA,Kitsap,NA,North Kitsap Fire & Rescue,26642 Miller Bay Rd NE,Kingston,98346,NA,NA
WA,Kitsap,NA,Port Orchard - Admin Bldg,619 Division St,Port Orchard,98366,NA,Located on the side of the Administration Building near the corner of Division St and Cline Ave.
WA,Kitsap,NA,Poulsbo - Olympic College,1000 Olympic College Way NW,Poulsbo,98370,NA,NA
WA,Kitsap,NA,Poulsbo Fire Station,911 NE Liberty Rd,Poulsbo,98370,NA,NA
WA,Kitsap,NA,Seabeck - Green Mountain Elementary,3860 Boundary Trail NW,Bremerton,98312,NA,NA
WA,Kitsap,NA,Silverdale - Jenne-Wright Building,9210 Silverdale Way NW,Silverdale,98383,NA,Central Kitsap School District Administration Bldg
WA,Kitsap,NA,South Kitsap Fire Station 17,7990 McCormick Woods Dr SW,Port Orchard,98367,NA,NA
WA,Kitsap,NA,South Kitsap Fire Station 8,1974 Fircrest Dr SE,Port Orchard,98366,NA,NA
WA,Kitsap,NA,Southworth - Ferry Terminal,11677 SE Southworth Ferry Dr,Southworth,98366,NA,Enter terminal parking via Ridge Crest Way SE
WA,Kitsap,NA,Suquamish - Tribal Council Building,18490 Suquamish Way NE,Suquamish,98392,NA,NA
WA,Kitsap,NA,Tracyton - Elks Lodge 1181,4131 Pine Rd NE,Bremerton,98310,NA,NA
WA,Kitsap,NA,West Side Improvement Club,4109 West E St,Bremerton,98312,NA,NA
WA,Kittitas,NA,Central Washington University - SURC - DROP BOX ONLY,1007 N. Chestnut St,Ellensburg,98926,NA,Curbside of the SURC entrance
WA,Kittitas,NA,City of Kittitas - DROP BOX ONLY,207 Main St,Kittitas,98934,NA,Located in the Alley behind City of Kittitas Administrative building.
WA,Kittitas,NA,City of Roslyn Roslyn Library - DROP BOX ONLY,201 S. 1st St,Roslyn,98941,NA,NA
WA,Kittitas,NA,Courthouse - Drive Up Drop Box,205 W 5th Ave ave,Ellensburg,98926,NA,NA
WA,Kittitas,NA,Easton Fire Station - DROP BOX ONLY,180 Cabin Creek Rd,Easton,98925,NA,NA
WA,Kittitas,NA,Fire District No 1 - DROP BOX ONLY,10700 Thorp Hwy N,Thorp,98946,NA,Located near the Fire District sign
WA,Kittitas,NA,Kittitas County Auditor's Office Drop Box,205 W 5th Ste 105,Ellensburg,98926,NA,NA
WA,Kittitas,NA,Ronald Fire Station - DROP BOX ONLY,Atlantic Ave and 1st St,Ronald,98940,NA,NA
WA,Kittitas,NA,South Cle Elum Town Hall - DROP BOX ONLY,523 Lincoln St,South Cle Elum,98943,NA,NA
WA,Kittitas,NA,Upper County District Court - DROP BOX ONLY,700 E. 1st Street,Cle Elum,98922,NA,NA
WA,Klickitat,NA,Auditor's Office Ballot Box,205 S. Columbus Ave. Rm 203,Goldendale,98620,NA,The Auditor's Office is located in Room 203 of the County Courthouse building. Enter the main doors come up the stairs and turn left.
WA,Klickitat,NA,Bickleton Remote Ballot Box,E. Market & S. Madison Streets,Bickleton,99322,NA,Adjacent to Alderdale Grange.
WA,Klickitat,NA,Bingen Remote Drop Box,112 N. Ash St.,Bingen,98605,NA,Outside Bingen City Hall.
WA,Klickitat,NA,Dallesport Remote Ballot Box,136 6th St.,Dallesport,98617,NA,Across from the Post Office in Dallesport Community Center parking lot.
WA,Klickitat,NA,Glenwood Remote Ballot Box,209 E. Main St.,Glenwood,98619,NA,North of the General Store.
WA,Klickitat,NA,Goldendale Remote Ballot Box,115 S. Columbus Ave.,Goldendale,98620,NA,This drop box is located on the corner of S. Columbus Ave. and W. Court St. (north of the court house lawn).
WA,Klickitat,NA,Klickitat Remote Ballot Box,State Hwy 142,Klickitat,98628,NA,At Depot Park
WA,Klickitat,NA,Lyle Remote Ballot Box,5th St. & Hwy 14,Lyle,98635,NA,Lyle Lions Club parking lot.
WA,Klickitat,NA,Roosevelt Remote Ballot Box,615 Chinook Ave.,Roosevelt,99356,NA,Roosevelt School parking lot.
WA,Klickitat,NA,Trout Lake Remote Ballot Box,Jennings Rd. & Hwy 141,Trout Lake,98650,NA,East of the Post Office.
WA,Klickitat,NA,White Salmon Remote Ballot Box,501 NE Washington St.,White Salmon,98672,NA,This drop box is located in the parking lot of the Pioneer Center in White Salmon (adjacent to the Post Office).
WA,Klickitat,NA,Wishram Remote Ballot Box,Park Place,Wishram,98635,NA,North of Historic Locomotive
WA,Lewis,NA,Centralia College Drop Box,Kemp Hall Parking Lot,Centralia,98531,NA,The drive through ballot drop box is located in the Kemp Hall parking lot and can be accessed from Rock St.
WA,Lewis,NA,Chehalis Avenue Drop Box,242 NW Chehalis Ave,Chehalis,98532,NA,The drive through ballot drop box is located at the corner of NW Chehalis Ave and NW Center St. The lot is accessed from NW Center St.
WA,Lewis,NA,Lewis County Historic Courthouse Drop Box,351 N.W. North St.,Chehalis,98532,NA,Take exit 77 from I-5. Auditor's Office is at the west end of the Historic Courthouse on the main floor.
WA,Lewis,NA,Mineral Drop Box,104 Front St. W.,Mineral,98355,NA,The drive through drop box is located in front of the Mineral Fire Station (Fire District No. 9).
WA,Lewis,NA,Morton Drop Box,103 Westlake Ave,Morton,98356,NA,The drive through ballot drop box at the Morton Senior Center is located across the street from the Morton High School. The lot can be accessed from E. Westlake Ave.
WA,Lewis,NA,Mossyrock Drop Box,219 E. State St,Mossyrock,98564,NA,The drive through ballot drop box is located in the Mossyrock Community Center parking lot.
WA,Lewis,NA,Napavine Drop Box,Corner of Jefferson & 2nd Ave,Napavine,98565,NA,The drive through drop box is located in the Napavine Fire Station parking lot (Fire District No. 5). The box can be accessed from E. Jefferson St.
WA,Lewis,NA,Onalaska Drop Box,560 Carlisle Ave.,Onalaska,98570,NA,The drive through drop box is located in front of the Onalaska School District Office.
WA,Lewis,NA,Packwood Drop Box,12931 US Hwy 12,Packwood,98361,NA,The drive through ballot drop box is located in the Packwood Senior Center parking lot.
WA,Lewis,NA,Pe Ell Drop Box,721 Main St.,Pe Ell,98572,NA,The drive through drop box is located in the Pe Ell Fire Station parking lot (Fire District No. 11).
WA,Lewis,NA,Toledo Drop Box,150 Coal St.,Toledo,98591,NA,The drive through ballot drop box is located in the Toledo Senior Center parking lot and can be accessed from Coal St.
WA,Lewis,NA,Twin Cities Senior Center Drop Box,2545 N National Ave,Chehalis,98532,NA,The drive through ballot drop box is located in front of the Senior Center. The lot can be accessed from N. National Ave.
WA,Lewis,NA,Vader Drop Box,State Hwy 506 between A & B Streets,Vader,98593,NA,The drive through drop box is located along the side of the City of Vader Public Works Building.
WA,Lewis,NA,Winlock Drop Box,119 SW Kerron St.,Winlock,98596,NA,The drive through ballot drop box is located in the Winlock Senior Center parking lot. The lot can be accessed from SW Kerron Ave.
WA,Lincoln,NA,Election Office Ballot Box,450 Logan,Davenport,99122,NA,Located on the first floor of the court house in the auditor's office.
WA,Lincoln,NA,Harrington City Hall,11 South 3rd Street,Harrington,99134,NA,NA
WA,Lincoln,NA,Lincoln County Court House,450 Logan,Davenport,99122,NA,East side parking lot of court house.
WA,Mason,NA,Belfair John L. Scott Building,23910 NE State Route 3,Belfair,98528,NA,NA
WA,Mason,NA,Grapeview Horton Community Center,4350 Grapeview Loop Rd,Grapeview,98546,NA,NA
WA,Mason,NA,Hood Canal Visitor Center,150 N Lake Cushman Rd,Hoodsport,98548,NA,NA
WA,Mason,NA,Kamilche Area Fire District No. 4 Station,3660 SE Old Olympic Hwy,Shelton,98584,NA,NA
WA,Mason,NA,Mason County Auditor's Office Drop Box,411 N 5th Street,Shelton,98584,NA,Ballot drop box is available 24 hours a day.
WA,Mason,NA,Port of Allyn,18560 E State Route 3,Allyn,98524,NA,NA
WA,Mason,NA,Shelton Timberland Regional Library,710 W Alder St,Shelton,98584,NA,NA
WA,Mason,NA,Union Chevron Station,1031 E McReavy Rd,Union,98592,NA,NA
WA,Okanogan,NA,Coulee Dam,300 Lincoln Ave,Coulee Dam,99116,NA,By City Hall
WA,Okanogan,NA,Okanogan County Auditor's Office Drop Box,149 3rd Ave N,Okanogan,98840,NA,Room 104 1st floor
WA,Okanogan,NA,Omak,8 N Ash,Omak,98841,NA,Next to Omak Police Station.
WA,Okanogan,NA,Pateros,180 Pateros Mall,Pateros,98846,NA,In parking lot.
WA,Okanogan,NA,Tonasket,209 S Whitcomb,Tonasket,98855,NA,In front of City Hall/Library.
WA,Okanogan,NA,Twisp,118 S Glover St,Twisp,98856,NA,By City Hall
WA,Pacific,NA,Bay Center,Park St,Bay Center,98527,NA,Located by County Park Entrance
WA,Pacific,NA,Chinook Community Center,810 Highway 101,Chinook,98614,NA,Located in Community Center Parking Lot
WA,Pacific,NA,Long Beach Annex Drop Box,7013 Sandridge Rd,Long Beach,98631,NA,First parking lot
WA,Pacific,NA,Naselle,797 SR 4,Naselle,98638,NA,WSP Parking Lot
WA,Pacific,NA,Pacific County Courthouse Drop Box,300 Memorial Drive,South Bend,98586,NA,Ballots are accepted until 8 PM on election day.
WA,Pacific,NA,Raymond,211 Commercial St,Raymond,98577,NA,In parking lot next to Dept. of Public Works.
WA,Pend Oreille,NA,Between Ione Public Library and Community Center,112 S Central Ave,Ione,99139,NA,NA
WA,Pend Oreille,NA,Cusick Library,107 S 1st Ave,Cusick,99119,NA,Located inside the Library.
WA,Pend Oreille,NA,Pend Oreille County Court House Drop Box,625 West 4th St,Newport,99156,NA,Located in the alley behind the Court House
WA,Pierce,NA,72nd St Transit Center,1319 E 72nd St,Tacoma,98404,NA,Drop Box
WA,Pierce,NA,Anderson Island Ferry Landing Park & Ride,Yoman Rd near Villa Beach Road,Anderson Island,98303,NA,Drop Box
WA,Pierce,NA,Ashford County Park,29801 SR 706,Ashford,98304,NA,Drop Box
WA,Pierce,NA,Barney's Corner,40512 Meridian E,Eatonville,98328,NA,Drop Box
WA,Pierce,NA,Bonney Lake South Park & Ride,184th Ave E & Sky Island Dr E,Bonney Lake,98391,NA,Drop Box
WA,Pierce,NA,Browns Pt NE Tacoma Police Substation,4731 Norpoint Way NE,Browns Point,98422,NA,Drop Box
WA,Pierce,NA,Buckley Library,123 S River Rd,Buckley,98321,NA,Drop Box
WA,Pierce,NA,Central District,902 S L Street,Tacoma,98405,NA,Drop Box
WA,Pierce,NA,Community Health Care at Salishan,1708 N 44th Street,Tacoma,98404,NA,Drop Box
WA,Pierce,NA,DuPont Ross Plaza,1500 Wilmington Drive,DuPont,98327,NA,Drop Box
WA,Pierce,NA,Eatonville Town Hall,201 Center St. W,Eatonville,98328,NA,Drop Box
WA,Pierce,NA,Edgewood City Hall,2224 104th Ave E,Edgewood,98372,NA,Drop Box
WA,Pierce,NA,Fife City Hall,5411 23rd Street E,Fife,98424,NA,Drop Box
WA,Pierce,NA,Fircrest City Hall,115 Ramsdell St.,Fircrest,98466,NA,Drop Box
WA,Pierce,NA,Fox Island Fire Station 53,906 Kamas Dr.,Fox Island,98333,NA,Drop Box
WA,Pierce,NA,Gig Harbor Fire Station 51,6711 Kimball Drive,Gig Harbor,98335,NA,Drop Box
WA,Pierce,NA,Gig Harbor Library,4424 Point Fosdick Dr NW,Gig Harbor,98335,NA,Drop Box
WA,Pierce,NA,Graham Fire & Rescue,10012 187th Street E,Puyallup,98375,NA,Drop Box
WA,Pierce,NA,Home Park,17220 8th Ave NW,Lakebay,98349,NA,Drop Box
WA,Pierce,NA,Kandle Park Police Substation,5140 N 26th St,Tacoma,98407,NA,Drop Box
WA,Pierce,NA,Key Center Food Market,9021 Key Peninsula Hwy NW,Lakebay,98349,NA,Drop Box
WA,Pierce,NA,Lake Kathryn Food Market,14220 92nd Ave NW,Gig Harbor,98329,NA,Drop Box
WA,Pierce,NA,Lakewood (SR512) Park & Ride,10417 South Tacoma Way,Lakewood,98499,NA,Drop Box
WA,Pierce,NA,Lakewood City Hall,6000 Main Street SW,Lakewood,98499,NA,Drop Box
WA,Pierce,NA,Milton City Hall,1000 Laurel St.,Milton,98354,NA,Drop Box
WA,Pierce,NA,Orting Public Safety,401 Washington Ave SE,Orting,98360,NA,Drop Box
WA,Pierce,NA,Parkland Spanaway Library,13718 Pacific Ave S,Tacoma,98444,NA,Drop Box
WA,Pierce,NA,Pierce County Election Center,2501 South 35th Street,Tacoma,98409,NA,Voting Center
WA,Pierce,NA,Pierce County Annex,2401 South 35th Street,Tacoma,98409,NA,Drop Box
WA,Pierce,NA,Purdy Fire Station,5210 144th St NW,Gig Harbor,98332,NA,Drop Box
WA,Pierce,NA,Puyallup Library,324 South Meridian,Puyallup,98371,NA,Drop Box
WA,Pierce,NA,Puyallup Tribal Administration,3009 Portland Ave E,Tacoma,98404,NA,Drop Box
WA,Pierce,NA,Roy City Hall,216 McNaughton Rd S,Roy,98580,NA,Drop Box
WA,Pierce,NA,Roy Y Park & Ride,SR 507 & Pacific Ave S,Spanaway,98387,NA,Drop Box
WA,Pierce,NA,Skookum Archers,11209 Shaw Rd E,Puyallup,98374,NA,Drop Box
WA,Pierce,NA,South Hill Library,15420 Meridian E,Puyallup,98375,NA,Drop Box
WA,Pierce,NA,South Prairie Fire Department,350 SR 162 E,South Prairie,98385,NA,Drop Box
WA,Pierce,NA,Steilacoom Library,2950 Steilacoom Blvd,Steilacoom,98388,NA,Drop Box
WA,Pierce,NA,Summit Library,5107 112th Street E,Tacoma,98446,NA,Drop Box
WA,Pierce,NA,Sumner Library,1116 Fryer Ave,Sumner,98390,NA,Drop Box
WA,Pierce,NA,TACID,6315 South 19th Street,Tacoma,98466,NA,Drop Box
WA,Pierce,NA,Tillicum Community Center,14916 Washington Ave SW,Lakewood,98498,NA,Drop Box
WA,Pierce,NA,Wapato Park,S 72nd St & S Ainsworth Ave,Tacoma,98408,NA,Drop Box
WA,Pierce,NA,West Pierce Fire & Rescue,3631 Drexler Dr W,University Place,98466,NA,Drop Box
WA,Pierce,NA,Wheelock Library,3722 N 26th St,Tacoma,98407,NA,Drop Box
WA,Pierce,NA,Wilkeson Town Hall,540 Church St,Wilkeson,98396,NA,Drop Box
WA,San Juan,NA,Elections Office - Drop Box,55 Second Street Suite A,Friday Harbor,98250,NA,*Open 8:00 AM to 4:30 PM weekdays* *Open 8:00 AM to 8:00 PM Election Day*
WA,San Juan,NA,Lopez Island Fire District Office,2228 Fisherman Bay Road,Lopez Village,98261,NA,NA
WA,San Juan,NA,Orcas Senior Center,62 Henry Rd,Eastsound,98245,NA,NA
WA,San Juan,NA,San Juan County Courthouse Drop Box,350 Court Street,Friday Harbor,98250,NA,NA
WA,Skagit,NA,Anacortes - Library,1220 10th Street,Anacortes,98221,NA,Behind the Anacortes Public Library near the book drop
WA,Skagit,NA,Anacortes - Skyline,6041 Sands Way,Anacortes,98221,NA,Skyline Beach Club
WA,Skagit,NA,Burlington,900 E. Fairhaven Street,Burlington,98233,NA,Burlington Parks and Recreation Building
WA,Skagit,NA,Concrete,45770 A Main Street,Concrete,98237,NA,Skagit Upriver Services/Library
WA,Skagit,NA,La Conner,614 E. Morris Street,La Conner,98257,NA,La Conner Regional Library
WA,Skagit,NA,Mt Vernon - Continental,1805 Continential Place,Mount Vernon,98273,NA,Mount Vernon Police Department
WA,Skagit,NA,Mt Vernon - Courthouse,700 S. 2nd St,Mount Vernon,98273,NA,In U-shaped parking lot accessed from 3rd Street
WA,Skagit,NA,Sedro-Woolley,111 Woodworth St.,Sedro-Woolley,98284,NA,In the alley between Eastern Ave and Metcalf
WA,Skagit,NA,Swinomish,17337 Reservation Rd,La Conner,98257,NA,Social Services Building front
WA,Skamania,NA,Canyon Creek Middle School (parking lot),9731 Washougal River Rd,Washougal,98671,NA,Canyon Creek Middle School (parking lot)
WA,Skamania,NA,Carson Transit Station (near Wind River Market),11 Carson Frontage Rd,Carson,98610,NA,Carson Transit Station (near Wind River Market)
WA,Skamania,NA,North Bonneville Central Business District (near city hall),210 CBD Mall Dr,North Bonneville,98639,NA,NA
WA,Skamania,NA,Skamania County Court House (north side near door),240 NW Vancouver Ave,Stevenson,98648,NA,NA
WA,Skamania,NA,The Little Church in the Valley (parking lot),342 Hemlock Rd,Carson (Stabler),98610,NA,NA
WA,Skamania,NA,Underwood Community Center (parking lot),951 Schoolhouse Rd,Underwood,98651,NA,Underwood Community Center (parking lot)
WA,Snohomish,NA,Arlington,135 North Washington Ave,Arlington,98223,NA,Box located outside of library. Box closes promptly at 8 pm November 3 2020. Not a drive up box - must park and walk. Library does not have key to ballot box.
WA,Snohomish,NA,Bothell,22833 Bothell Everett Hwy,Bothell,98021,NA,Box located in QFC parking lot. Box closes promptly at 8 pm November 3 2020. QFC does not have a key to the ballot box.
WA,Snohomish,NA,County Elections Office - a division of the Auditor's Office - Drop Box,3000 Rockefeller Ave,Everett,98201,NA,Voting in person available 9 am- 5 pm Monday through Friday. Election Day November 3 2020 8 am - 8 pm. Find us on the first floor of the west Administration Building
WA,Snohomish,NA,Darrington,2005 Cascade St,Darrington,98241,NA,Box located outside of library/city hall. Box closes promptly at 8 pm November 3 2020. Library/City Hall does not have key to ballot box.
WA,Snohomish,NA,Edmonds,650 Main St,Edmonds,98020,NA,Box located outside of library. Box closes promptly at 8 pm November 3 2020. Not a drive up box - must park and walk. Library does not have key to ballot box.
WA,Snohomish,NA,Everett - County Courthouse,3000 Rockefelller Ave,Everett,98201,NA,Box located at sidewalk on Wall St and Rockefeller Ave. Box closes promptly at 8 pm November 3 2020. Not a drive up box - must park and walk.
WA,Snohomish,NA,Everett - McCollum Park,600 128th St SE,Everett,98208,NA,Box located near bus loading area on east end of Park & Ride. Box closes promptly at 8 pm November 3 2020.
WA,Snohomish,NA,Everett Community College,1001 N Broadway Ave,Everett,98201,NA,Box located in parking lot near WSU building. Box closes promptly at 8 pm November 3 2020. College does not have a key to the ballot box.
WA,Snohomish,NA,Everett Mall,1402 SE Everett Mall Way,Everett,98208,NA,Box located in Sears area parking lot. Box closes promptly at 8 pm November 3 2020.
WA,Snohomish,NA,Gold Bar,5th and Orchard,Gold Bar,98251,NA,Box located at Gateway Park (Gazebo). Box closes promptly at 8 pm November 3 2020.
WA,Snohomish,NA,Granite Falls,815 E Galena St,Granite Falls,98252,NA,Box located outside of library. Box closes promptly at 8 pm November 3 2020. Not a drive up box - must park and walk. Library does not have key to ballot box.
WA,Snohomish,NA,Lake Stevens,1800 Main St,Lake Stevens,98258,NA,Box located near boat launch behind the Baptist church. Box closes promptly at 8 pm November 3 2020.
WA,Snohomish,NA,Lynnwood,19100 44th Ave W,Lynnwood,98036,NA,Box located outside of City Hall. Box closes promptly at 8 pm November 3 2020. City Hall does not have a key to the ballot box.
WA,Snohomish,NA,Lynnwood Library - accessible voting - Drop Box,19200 44th Avenue W,Lynnwood,98036,NA,Voting available Monday (November 4) 10am - 7pm and Tuesday (November 3 2020) 8am - 8pm.
WA,Snohomish,NA,Marysville,1049 State Ave,Marysville,98270,NA,Box located behind City Hall. Box closes promptly at 8 pm November 3 2020. City Hall does not have a key to the ballot box.
WA,Snohomish,NA,Mill Creek,15833 Mill Creek Blvd,Mill Creek,98012,NA,Box located in traffic circle near Post Office. Box closes promptly at 8 pm November 3 2020.
WA,Snohomish,NA,Monroe,1070 Village Way,Monroe,98272,NA,Box located outside of library. Box closes promptly at 8 pm November 3 2020. . Not a drive up box - must park and walk. Library does not have key to the ballot box.
WA,Snohomish,NA,Mountlake Terrace,23300 58th Ave W,Mountlake Terrace,98043,NA,Box located in library parking lot. Box closes promptly 8 pm November 3 2020. Library does not have key to the ballot box.
WA,Snohomish,NA,Mukilteo,4675 Harbour Pointe Blvd,Mukilteo,98275,NA,Box located outside of library. Box closes promptly at 8 pm November 3 2020. Not a drive up box - must park and walk. Library does not have key to the ballot box.
WA,Snohomish,NA,Smokey Point,3300 169th Pl NE,Arlington,98223,NA,Box located in north corner of parking lot. Box closes promptly at 8 pm November 3 2020.
WA,Snohomish,NA,Snohomish,311 Maple Ave,Snohomish,98290,NA,Box located outside of library. Box closes promptly at 8 pm November 3 2020. Not a drive up box - must park and walk. Library does not have a key to the ballot box.
WA,Snohomish,NA,Stanwood,9701 271st St NW,Stanwood,98292,NA,Box located in library back parking lot. Box closes promptly at 8 pm November 3 2020. Library does not have a key to the ballot box.
WA,Snohomish,NA,Sultan,319 Main St,Sultan,98294,NA,Box located outside of library/city hall (along drive to back of building). Box closes promptly at 8 pm November 3 2020. Library/City Hall does not have key to ballot box.
WA,Snohomish,NA,Tulalip,6722 Totem Beach Rd,Tulalip,98271,NA,Box located in Youth Center parking lot. Box closes promptly at 8 pm November 3 2020. Youth Center does not have a key to the ballot box.
WA,Snohomish,NA,Woodway,23920 113th P W,Woodway,98020,NA,Box located outside of Town Hall. Box closes promptly at 8 pm November 3 2020. Not a drive up box - must park and walk. Town does not have key to ballot box.
WA,Spokane,NA,Airway Heights Library - Ballot Drop Box,1213 S Lundstrom St,Airway Heights,99001,NA,Located in front of the Airway Heights Library.
WA,Spokane,NA,Argonne Library - Ballot Drop Box,4322 N Argonne Rd,Spokane Valley,99212,NA,Located near the front entrance of the Library.
WA,Spokane,NA,Cheney Library - Ballot Drop Box,610 First St,Cheney,99004,NA,Drop Box is located along the sidewalk Fleading from the parking lot to the front door of the library
WA,Spokane,NA,Deer Park Library - Ballot Drop Box,208 S Forest Ave,Deer Park,99006,NA,Located near exit from parking lot. Can be accessed from driver's side of car.
WA,Spokane,NA,Downtown Spokane Library - Ballot Drop Box,906 W Main St,Spokane,99201,NA,On Lincoln Street side of library.
WA,Spokane,NA,East Side Library - Ballot Drop Box,524 S Stone 07St,Spokane,99202,NA,Near the Book Return. Accessible from driver's side of car.
WA,Spokane,NA,Election Office - Ballot Drop Box Drive Up,1033 W Gardner Ave,Spokane,99201,NA,Drive up drop box located on Gardner Ave in front of the Elections Office. Accessible from driver's side
WA,Spokane,NA,Elections Office - Ballot Drop Box,1033 W Gardner Ave,Spokane,99201,NA,Drop Box slot is located next to the front entrance of the Elections Office.
WA,Spokane,NA,Fairfield Library - Ballot Drop Box,305 E Main St,Fairfield,99012,NA,Located to the right of the entryway to the library.
WA,Spokane,NA,Hillyard Library - Ballot Drop Box,4005 N Cook St,Spokane,99207,NA,Near front entrance to library.
WA,Spokane,NA,Indian Trail Library - Ballot Drop Box,4909 W Barnes Rd,Spokane,99208,NA,Near book deposit box. Can be accessed from driver's side of car.
WA,Spokane,NA,Latah Town Hall - Ballot Drop Box,108 E Market St,Latah,99018,NA,Located outside front door of the Latah Town Hall/Community Center.
WA,Spokane,NA,Liberty Lake Library - Ballot Drop Box,23123 E Mission Ave,Liberty Lake,99019,NA,Located on right side of the entrance to the library.
WA,Spokane,NA,Medical Lake Library - Ballot Drop Box,321 E Herb St,Medical Lake,99022,NA,Located near the book deposit. Can be accessed from driver's side of car.
WA,Spokane,NA,Millwood City Hall - Ballot Drop Box,9103 E Frederick Ave,Spokane,99206,NA,Located outside near Southeast corner of the Millwood City Hall building.
WA,Spokane,NA,Moran Prairie Library - Ballot Drop Box,6004 S Regal St,Spokane,99223,NA,Located in the library parking lot on the North side of the building. Can be accessed from driver's side
WA,Spokane,NA,North Spokane Library - Ballot Drop Box,44 E Hawthorne Rd,Spokane,99218,NA,On left side of main driveway directly South of the building entry. Can be accessed from driver's side
WA,Spokane,NA,Otis Orchards Library - Ballot Drop Box,22324 E Wellesley Ave,Otis Orchards,99027,NA,Located to the left of the entrance to the library.
WA,Spokane,NA,Rockford Town Hall - Ballot Drop Box,20 W Emma St,Rockford,99030,NA,Located outside near the Southeast corner of Town Hall.
WA,Spokane,NA,Shadle Park Library - Ballot Drop Box,2111 W Wellesley Ave,Spokane,99205,NA,To the right of the front entrance to the library.
WA,Spokane,NA,South Hill Library - Ballot Drop Box,3324 S Perry St,Spokane,99203,NA,Located near book deposit on South side of library. Accessible from driver's side of car.
WA,Spokane,NA,Spangle Town Hall - Ballot Drop Box,115 W 2nd St,Spangle,99031,NA,Located outside on right side of the entrance to town hall.
WA,Spokane,NA,Spokane Valley Library - Ballot Drop Box,12004 E Main St,Spokane Valley,99206,NA,Located near book deposit on East side of the library.
WA,Spokane,NA,STA Plaza Downtown Spokane - Ballot Drop Box,701 W Riverside Ave,Spokane,99201,NA,STA Plaza Drop Box is located in the Wall Street Entrance.
WA,Spokane,NA,Waverly Town Hall - Ballot Drop Box,255 Commercial St,Waverly,99038,NA,Outside town hall near bus stop.
WA,Stevens,NA,Fire District 1 - District Office (Loon Lake Station 2),3962 Hwy 292,Loon Lake,99148,NA,Open 7:00 AM to 8:00 PM on Election Day only.
WA,Stevens,NA,Lake Spokane Elementary School,6015 Hwy 291,Nine Mile Falls,99026,NA,Ballot Drop off site is located inside the school lobby.
WA,Stevens,NA,Stevens County Courthouse,215 S. Oak Steet,Colville,99114,NA,Located at the Elm Street Entrance of the Courthouse
WA,Stevens,NA,United Church of Christ,10 E Webster Ave,Chewelah,99109,NA,Open 7:00 AM to 8:00 PM on Election Day only.
WA,Thurston,NA,Bucoda,103 S Main St,Bucoda,98530,NA,This box is opened 20 days prior to Election Day is available 24-hours a day and is locked promptly
WA,Thurston,NA,Church of the Good Shepherd,1601 North St SE,Olympia,98501,NA,This box is opened 20 days prior to Election Day is available 24-hours a day and is locked promptly at 8:00 p.m. on Election Day.
WA,Thurston,NA,Crain's Office Supply,1006 4th Ave E,Olympia,98501,NA,This box is opened 20 days prior to Election Day is available 24-hours a day and is locked promptly at 8:00 p.m. on Election Day.
WA,Thurston,NA,Fire District 3 Station 34,8407 Steilacoom Rd SE,Lacey,98513,NA,This box is opened 20 days prior to Election Day is available 24-hours a day and is locked promptly at 8:00 p.m. on Election Day.
WA,Thurston,NA,Fire District 3 Station 35,3701 Willamette Dr NE,Lacey,98516,NA,This box is opened 20 days prior to Election Day is available 24-hours a day and is locked promptly at 8:00 p.m. on Election Day.
WA,Thurston,NA,Gloria Dei Lutheran Church,1515 Harrison Ave NW,Olympia,98502,NA,This box is opened 20 days prior to Election Day is available 24-hours a day and is locked promptly at 8:00 p.m. on Election Day.
WA,Thurston,NA,Grand Mound Center,19949 Old Highway 99 SW,Rochester,98579,NA,This box is opened 20 days prior to Election Day is available 24-hours a day and is locked promptly at 8:00 p.m. on Election Day.
WA,Thurston,NA,Griffin Fire 13 Station 1,3707 Steamboat Loop NW,Olympia,98502,NA,This box is opened 20 days prior to Election Day is available 24-hours a day and is locked promptly at 8:00 p.m. on Election Day.
WA,Thurston,NA,Haggen NW Fresh,1313 Cooper Point Road SW,Olympia,98502,NA,This box is opened 20 days prior to Election Day is available 24-hours a day and is locked promptly at 8:00 p.m. on Election Day.
WA,Thurston,NA,Lacey City Hall,420 College St SE,Lacey,98503,NA,This box is opened 20 days prior to Election Day is available 24-hours a day and is locked promptly at 8:00 p.m. on Election Day.
WA,Thurston,NA,Lacey Post Office,5815 Lacey Blvd SE,Lacey,98503,NA,Next to drive-up mail boxes.
WA,Thurston,NA,Lackamas Elementary,16240 Bald Hill Rd SE,Yelm,98597,NA,This box is opened 20 days prior to Election Day is available 24-hours a day and is locked promptly at 8:00 p.m. on Election Day.
WA,Thurston,NA,Littlerock Fire 11,10828 Littlerock Rd SW,Olympia,98512,NA,This box is opened 20 days prior to Election Day is available 24-hours a day and is locked promptl
WA,Thurston,NA,Martin Village,5600 Martin Way E,Lacey,98516,NA,This box is opened 20 days prior to Election Day is available 24-hours a day and is locked promptly at 8:00 p.m. on Election Day.
WA,Thurston,NA,McLane Black Lake Fire Station 95,5911 Black Lake Blvd SW,Olympia,98512,NA,This box is opened 20 days prior to Election Day is available 24-hours a day and is locked promptl
WA,Thurston,NA,Nisqually Tribal Admin Bldg,4820 She Nah Num Dr SE,Olympia,98513,NA,This box is opened 20 days prior to Election Day is available 24-hours a day and is locked promptly at 8:00 p.m. on Election Day.
WA,Thurston,NA,Olympia City Hall,601 4th Ave E,Olympia,98501,NA,This box is opened 20 days prior to Election Day is available 24-hours a day and is locked promptly at 8:00 p.m. on Election Day.
WA,Thurston,NA,Rainier City Hall,102 Rochester St W,Rainier,98576,NA,This box is opened 20 days prior to Election Day is available 24-hours a day and is locked promptly at 8:00 p.m. on Election Day.
WA,Thurston,NA,Rochester Fire 1 Station 3,18346 Albany St SW,Rochester,98579,NA,This box is opened 20 days prior to Election Day is available 24-hours a day and is locked promptly at 8:00 p.m. on Election Day.
WA,Thurston,NA,South Bay Fire 8 Station 81,3506 Shincke Rd NE,Olympia,98506,NA,This box is opened 20 days prior to Election Day is available 24-hours a day and is locked promptl
WA,Thurston,NA,South Bay Fire 8 Station 83,5046 Boston Harbor Rd NE,Olympia,98506,NA,This box is opened 20 days prior to Election Day is available 24-hours a day and is locked promptl
WA,Thurston,NA,Tenino School District Administration,301 Old Highway 99 SE,Tenino,98589,NA,This box is opened 20 days prior to Election Day is available 24-hours a day and is locked promptl
WA,Thurston,NA,The Evergreen State College,2700 McCann Plaza Dr NW,Olympia,98505,NA,This box is opened 20 days prior to Election Day is available 24-hours a day and is locked promptl
WA,Thurston,NA,Thurston County Courthouse,2000 Lakeridge Dr SW,Olympia,98502,NA,This box is opened 20 days prior to Election Day is available 24-hours a day and is locked promptly at 8:00 p.m. on Election Day.
WA,Thurston,NA,Tumwater School Administration,621 Linwood Ave SW,Tumwater,98512,NA,This box is opened 20 days prior to Election Day is available 24-hours a day and is locked promptly at 8:00 p.m. on Election Day.
WA,Thurston,NA,Tumwater Timberland Library,7023 New Market St SW,Tumwater,98501,NA,This box is opened 20 days prior to Election Day is available 24-hours a day and is locked promptly at 8:00 p.m. on Election Day.
WA,Thurston,NA,Woodland Retirement and Assisted Living Community,4532 Intelco Loop SE,Lacey,98503,NA,This box is opened 20 days prior to Election Day is available 24-hours a day and is locked promptly at 8:00 p.m. on Election Day.
WA,Thurston,NA,Yelm Schools Administration,110 1st Street NE,Yelm,98597,NA,This box is opened 20 days prior to Election Day is available 24-hours a day and is locked promptl
WA,Wahkiakum,NA,Johnson Park,30 Rosburg School Road,Rosburg,98643,NA,Drop off only. Any questions call Auditor's Office. toll free line: 360-465-2654 or 360-795-3219.
WA,Wahkiakum,NA,Wahkiakum County Auditor's Office - Drop Box,64 Main Street 2nd Floor,Cathlamet,98612,NA,Ballot drop box can be found at the front counter.
WA,Wahkiakum,NA,Wahkiakum West,19 Miller Point Rd,Rosburg,98643,NA,In the lobby of the Wahkiakum West Communications office.
WA,Walla Walla,NA,Burbank - Columbia Elementary School,977 Maple St,Burbank,99323,NA,Located in the parking lot in front of the school.
WA,Walla Walla,NA,College Place City Hall,625 S. College Avenue,College Place,99324,NA,Located in the alley behind City Hall
WA,Walla Walla,NA,Corner of 5th & Poplar,310 W. Poplar St.,Walla Walla,99362,NA,Located next to the ramp outside of the Elections Center.
WA,Walla Walla,NA,Courthouse Alley,315 W. Main St.,Walla Walla,99362,NA,Located in the alley between the Courthouse & the Jail. Enter the alley from 5th St.
WA,Walla Walla,NA,Touchet School District,90 Champion St,Touchet,99360,NA,Located in parking lot in front of school.
WA,Walla Walla,NA,Waitsburg City Hall - Outside,147 Main St.,Waitsburg,99361,NA,Located on sidewalk by front door outside City Hall.
WA,Walla Walla,NA,Walla Walla County Auditor's Office,315 W. Main St. Room 201,Walla Walla,99362,NA,Located inside the Auditor's Office on the 2nd floor.
WA,Walla Walla,NA,Walla Walla County Elections Center - Drop Box,310 W. Poplar St.,Walla Walla,99362,NA,Located on the corner of 5th Ave. and Poplar St.
WA,Walla Walla,NA,Walla Walla Fire Station #2 - Parking Lot,170 N. Wilbur Ave.,Walla Walla,99362,NA,Located in parking lot on the corner of Wilbur Ave. and Tacoma St.
WA,Whatcom,NA,Acme Elementary School,5200 Turkington Rd.,Acme,98220,NA,Open: 20 days before Election Day Close: 8:00 pm on Election Day
WA,Whatcom,NA,Blaine Library,610 3rd St.,Blaine,98230,NA,Open: 20 days before Election Day Close: 8:00 pm on Election Day
WA,Whatcom,NA,Custer Elementary School,7660 Custer School Rd.,Custer,98240,NA,Open: 20 days before Election Day Close: 8:00 pm on Election Day
WA,Whatcom,NA,Deming Library,5044 Mt Baker Hwy.,Deming,98244,NA,Open: 20 days before Election Day Close: 8:00 pm on Election Day
WA,Whatcom,NA,Everson WECU,106 E. Main St.,Everson,98247,NA,Open: 20 days before Election Day Close: 8:00 pm on Election Day
WA,Whatcom,NA,Ferndale City Hall,2095 Main St.,Ferndale,98248,NA,Open: 20 days before Election Day Close: 8:00 pm on Election Day
WA,Whatcom,NA,International Marketplace,480 Tyee Dr.,Point Roberts,98281,NA,Open: 20 days before Election Day during store hours (8:00 am - 10:00 pm). Close: 8:00 pm on Election Day
WA,Whatcom,NA,Kendall (North Fork Community Library),7506 Kendall Rd.,Maple Falls,98266,NA,Open: 20 days before Election Day Close: 8:00 pm on Election Day
WA,Whatcom,NA,Lummi Nation Admin Building,2665 Kwina Rd.,Bellingham,98226,NA,Open: 20 days before Election Day Close: 8:00 pm on Election Day
WA,Whatcom,NA,Lynden Library,216 4th St.,Lynden,98264,NA,Open: 20 days before Election Day Close: 8:00 pm on Election Day
WA,Whatcom,NA,Meridian (Laurel Grange),6172 Guide Meridian,Bellingham,98226,NA,Open: 20 days before Election Day Close: 8:00 pm on Election Day
WA,Whatcom,NA,North Whatcom Fire & Rescue Station,4581 Birch-Bay Lynden Rd.,Blaine,98230,NA,Open: 20 days before Election Day Close: 8:00 pm on Election Day
WA,Whatcom,NA,Sehome Village,210 36th St.,Bellingham,98225,NA,Open: 20 days before Election Day Close: 8:00 pm on Election Day
WA,Whatcom,NA,Sudden Valley,2018 Lake Whatcom Blvd.,Bellingham,98229,NA,Open: 20 days before Election Day Close: 8:00 pm on Election Day
WA,Whatcom,NA,Sumas,534 Railroad Ave.,Sumas,98295,NA,Open: 20 days before Election Day Close: 8:00 pm on Election Day
WA,Whatcom,NA,Western Washington University,1880 Bill McDonald Pkwy.,Bellingham,98225,NA,Open: 20 days before Election Day Close: 8:00 pm on Election Day
WA,Whatcom,NA,Whatcom Community College,237 W. Kellogg Rd.,Bellingham,98226,NA,Open: 20 days before Election Day Close: 8:00 pm on Election Day
WA,Whatcom,NA,Whatcom County Courthouse South Parking Lot,201 Grand Avenue,Bellingham,98225,NA,Open: 20 days before Election Day Close: 8:00 pm on Election Day
WA,Whitman,NA,Alley behind Whitman County Elections Center,N 304 Main St,Colfax,99111,NA,NA
WA,Whitman,NA,Pullman City Hall Clerks Office,325 SE Paradise St,Pullman,99163,NA,NA
WA,Whitman,NA,WSU Campus,Compton Union Building,Pullman,99163,NA,Outside the west entrance to the CUB on Terrell Mall
WA,Yakima,NA,24 hour ballot return - East Martin Luther King Jr Blvd,213 N 1st St,Yakima,98901,NA,access from E. Martin Luther King Jr. Blvd (one way street headed East)
WA,Yakima,NA,24 hour ballot return - S 8th St & Edison Ave (by Sunnyside Fire Department),S 8th St & Edison Ave,Sunnside,98944,NA,enter from E Edison Ave
WA,Yakima,NA,24 hour ballot return - Yakama Nation Main Agency Offices,401 Fort Rd,Toppenish,98948,NA,the big red box in the Yakama Nation Main Agency Offices parking lot across the street from Legends
WA,Yakima,NA,Grandview City Hall,207 W 2nd St.,Grandview,98930,NA,Office is closed from 12pm to 1pm. Open until 8PM Election Day.
WA,Yakima,NA,Granger City Hall,102 Main St.,Granger,98932,NA,Office closed from 12PM to 1PMFriday only. Open until 8PM Election Day.
WA,Yakima,NA,Harrah Town Hall,11 E Pioneer St.,Harah,98933,NA,Open Monday 9am-5pmclosed for lunch from 1PM to 2PM. Open Tuesday through Thursday 8:45AM to 2:45PM. Closed Friday. Open until 8PM Election Day.
WA,Yakima,NA,Mabton City Hall,305 Main St,Mabton,98935,NA,Closed from 12PM to 1PM. Open until 8PM Election Day.
WA,Yakima,NA,Moxee City Hall,255 W Seattle Ave.,Moxe,98936,NA,Open Monday-Thursday aAM-6PM Closed Friday Open until 8PM Election Day.
WA,Yakima,NA,Naches Town Hall,29 E 2nd St,Naches,98937,NA,Open Monday-Wednesday 9AM - 5PM Open Thursday & Friday 9AM to 2PM Open until 8PM Election Day.
WA,Yakima,NA,Neighborhood Health Sunnyside,617 Scoon Road,Sunyside,98944,NA,open Election Day only
WA,Yakima,NA,Parker,360 Colmbia Rd,Parker,98939,NA,Parker Fire Station No. O
WA,Yakima,NA,Selah City Hall,115 W Naches Ave.,Seah,98942,NA,Open until 8PM Election Day.
WA,Yakima,NA,Tieton City Hall,418 Maple St.,Tieton,98947,NA,Open until 8PM Election Day.
WA,Yakima,NA,Toppenish City Hall,21 W 1st Ave,Tofppenish,98948,NA,Open Monday-Friday aAM-5PM Open until 8PM Election Day.
WA,Yakima,NA,Union Gap City Hall,102 W Ahtanum Rd.,Union Gap,98903,NA,Open Monday through Thursday 7AM to 5PM Friday 7AM to 11AM. Open until 8PM Election Day.
WA,Yakima,NA,Wapato Library,119 E 3rd S.,Wapato,98951,NA,Monday - Thursday open 11AM to 7PM Friday open 11AM to 6PM Saturday open 10AM to 3PM Open until 8PM on Election Day
WA,Yakima,NA,White Swan,260 Curis St,White Swan,98952,NA,WhiteSwan Fire Station No. 1
WA,Yakima,NA,Yakima County Courthouse Security Station,128 N 2nd St,TYakima,9801,NA,M-F; 8am-5m election day; 8am-8pm
WA,Yakima,NA,Yakima County Election Office - Drop Box,128 N 2nd St Rm 117,Yakima,98901,NA,M-F; 9am-4pm election day; 8am to 8pm
WA,Yakima,NA,Zillah City Hall,503 First Ave.,Zillah,98953,NA,Open Monday-Friday aAM-5PM Open until 8PM Election Day.
